{
  "type": "FeatureCollection",
  "features": [
    {
      "type": "Feature",
      "properties": {
        "norad_id": 33412,
        "name": "COSMO-SKYMED 3",
        "group": "resource",
        "lat": 80.70094807516251,
        "lon": 139.49442140796805,
        "alt_km": 542.919569048674,
        "timestamp": "2025-12-12T11:38:31.072876+00:00",
        "meta_object_name": "COSMO-SKYMED 3",
        "meta_object_id": "2008-054A",
        "meta_epoch": "2025-12-12T03:17:18.638592",
        "meta_mean_motion": 15.05350511,
        "meta_eccentricity": 0.0015962,
        "meta_inclination": 97.8467,
        "meta_ra_of_asc_node": 196.5184,
        "meta_arg_of_pericenter": 175.8945,
        "meta_mean_anomaly": 184.2414,
        "meta_ephemeris_type": 0,
        "meta_classification_type": "U",
        "meta_norad_cat_id": 33412,
        "meta_element_set_no": 999,
        "meta_rev_at_epoch": 92878,
        "meta_bstar": 0.00068061,
        "meta_mean_motion_dot": 9.718e-05,
        "meta_mean_motion_ddot": 0,
        "tle_line1": "1 33412U 08054A   25346.13702128  .00009718  00000+0  68061-3 0  9992",
        "tle_line2": "2 33412  97.8467 196.5184 0015962 175.8945 184.2414 15.05350511928786"
      },
      "geometry": {
        "type": "Point",
        "coordinates": [
          139.49442140796805,
          80.70094807516251
        ]
      }
    },
    {
      "type": "Feature",
      "properties": {
        "norad_id": 33446,
        "name": "YAOGAN-4",
        "group": "resource",
        "lat": 81.65526687484598,
        "lon": -155.0021343285887,
        "alt_km": 618.6026272462759,
        "timestamp": "2025-12-12T11:38:31.072887+00:00",
        "meta_object_name": "YAOGAN-4",
        "meta_object_id": "2008-061A",
        "meta_epoch": "2025-12-11T19:03:10.073376",
        "meta_mean_motion": 14.82677773,
        "meta_eccentricity": 0.00136364,
        "meta_inclination": 97.9179,
        "meta_ra_of_asc_node": 275.9025,
        "meta_arg_of_pericenter": 326.6885,
        "meta_mean_anomaly": 33.3469,
        "meta_ephemeris_type": 0,
        "meta_classification_type": "U",
        "meta_norad_cat_id": 33446,
        "meta_element_set_no": 999,
        "meta_rev_at_epoch": 91789,
        "meta_bstar": 0.00029431307,
        "meta_mean_motion_dot": 2.323e-05,
        "meta_mean_motion_ddot": 0,
        "tle_line1": "1 33446U 08061A   25345.79386659  .00002323  00000+0  29431-3 0  9998",
        "tle_line2": "2 33446  97.9179 275.9025 0013636 326.6885  33.3469 14.82677773917895"
      },
      "geometry": {
        "type": "Point",
        "coordinates": [
          -155.0021343285887,
          81.65526687484598
        ]
      }
    },
    {
      "type": "Feature",
      "properties": {
        "norad_id": 33492,
        "name": "GOSAT (IBUKI)",
        "group": "resource",
        "lat": 26.459098580732874,
        "lon": -80.85559671119827,
        "alt_km": 667.6320116118459,
        "timestamp": "2025-12-12T11:38:31.072897+00:00",
        "meta_object_name": "GOSAT (IBUKI)",
        "meta_object_id": "2009-002A",
        "meta_epoch": "2025-12-12T04:24:03.751200",
        "meta_mean_motion": 14.67553346,
        "meta_eccentricity": 9.36e-05,
        "meta_inclination": 98.0768,
        "meta_ra_of_asc_node": 94.7943,
        "meta_arg_of_pericenter": 91.2926,
        "meta_mean_anomaly": 268.8386,
        "meta_ephemeris_type": 0,
        "meta_classification_type": "U",
        "meta_norad_cat_id": 33492,
        "meta_element_set_no": 999,
        "meta_rev_at_epoch": 90403,
        "meta_bstar": 0.00025723,
        "meta_mean_motion_dot": 1.411e-05,
        "meta_mean_motion_ddot": 0,
        "tle_line1": "1 33492U 09002A   25346.18337675  .00001411  00000+0  25723-3 0  9990",
        "tle_line2": "2 33492  98.0768  94.7943 0000936  91.2926 268.8386 14.67553346904035"
      },
      "geometry": {
        "type": "Point",
        "coordinates": [
          -80.85559671119827,
          26.459098580732874
        ]
      }
    },
    {
      "type": "Feature",
      "properties": {
        "norad_id": 35681,
        "name": "DEIMOS-1",
        "group": "resource",
        "lat": -43.76105574242557,
        "lon": -40.3595054649535,
        "alt_km": 653.5627689952762,
        "timestamp": "2025-12-12T11:38:31.072908+00:00",
        "meta_object_name": "DEIMOS-1",
        "meta_object_id": "2009-041A",
        "meta_epoch": "2025-12-12T04:06:58.405248",
        "meta_mean_motion": 14.74952034,
        "meta_eccentricity": 0.0002726,
        "meta_inclination": 97.7151,
        "meta_ra_of_asc_node": 146.8011,
        "meta_arg_of_pericenter": 80.473,
        "meta_mean_anomaly": 279.6787,
        "meta_ephemeris_type": 0,
        "meta_classification_type": "U",
        "meta_norad_cat_id": 35681,
        "meta_element_set_no": 999,
        "meta_rev_at_epoch": 87931,
        "meta_bstar": 0.00020417,
        "meta_mean_motion_dot": 1.324e-05,
        "meta_mean_motion_ddot": 0,
        "tle_line1": "1 35681U 09041A   25346.17150932  .00001324  00000+0  20417-3 0  9991",
        "tle_line2": "2 35681  97.7151 146.8011 0002726  80.4730 279.6787 14.74952034879318"
      },
      "geometry": {
        "type": "Point",
        "coordinates": [
          -40.3595054649535,
          -43.76105574242557
        ]
      }
    },
    {
      "type": "Feature",
      "properties": {
        "norad_id": 35682,
        "name": "DUBAISAT-1",
        "group": "resource",
        "lat": 20.39507814024859,
        "lon": -59.84263561831883,
        "alt_km": 652.6139333637684,
        "timestamp": "2025-12-12T11:38:31.072919+00:00",
        "meta_object_name": "DUBAISAT-1",
        "meta_object_id": "2009-041B",
        "meta_epoch": "2025-12-11T23:31:17.778432",
        "meta_mean_motion": 14.7460116,
        "meta_eccentricity": 0.00096,
        "meta_inclination": 97.9785,
        "meta_ra_of_asc_node": 116.6709,
        "meta_arg_of_pericenter": 317.2917,
        "meta_mean_anomaly": 42.7545,
        "meta_ephemeris_type": 0,
        "meta_classification_type": "U",
        "meta_norad_cat_id": 35682,
        "meta_element_set_no": 999,
        "meta_rev_at_epoch": 87750,
        "meta_bstar": 0.00034685,
        "meta_mean_motion_dot": 2.263e-05,
        "meta_mean_motion_ddot": 0,
        "tle_line1": "1 35682U 09041B   25345.98006688  .00002263  00000+0  34685-3 0  9993",
        "tle_line2": "2 35682  97.9785 116.6709 0009600 317.2917  42.7545 14.74601160877500"
      },
      "geometry": {
        "type": "Point",
        "coordinates": [
          -59.84263561831883,
          20.39507814024859
        ]
      }
    },
    {
      "type": "Feature",
      "properties": {
        "norad_id": 35931,
        "name": "OCEANSAT-2",
        "group": "resource",
        "lat": 44.85278077633815,
        "lon": -21.15899155519778,
        "alt_km": 879.4091575342563,
        "timestamp": "2025-12-12T11:38:31.072929+00:00",
        "meta_object_name": "OCEANSAT-2",
        "meta_object_id": "2009-051A",
        "meta_epoch": "2025-12-12T04:33:48.127968",
        "meta_mean_motion": 13.99624814,
        "meta_eccentricity": 0.0016231,
        "meta_inclination": 98.2223,
        "meta_ra_of_asc_node": 346.8466,
        "meta_arg_of_pericenter": 46.5076,
        "meta_mean_anomaly": 313.7437,
        "meta_ephemeris_type": 0,
        "meta_classification_type": "U",
        "meta_norad_cat_id": 35931,
        "meta_element_set_no": 999,
        "meta_rev_at_epoch": 85317,
        "meta_bstar": -6.4318e-05,
        "meta_mean_motion_dot": -1.31e-06,
        "meta_mean_motion_ddot": 0,
        "tle_line1": "1 35931U 09051A   25346.19014037 -.00000131  00000+0 -64318-4 0  9993",
        "tle_line2": "2 35931  98.2223 346.8466 0016231  46.5076 313.7437 13.99624814853176"
      },
      "geometry": {
        "type": "Point",
        "coordinates": [
          -21.15899155519778,
          44.85278077633815
        ]
      }
    },
    {
      "type": "Feature",
      "properties": {
        "norad_id": 35946,
        "name": "WORLDVIEW-2 (WV-2)",
        "group": "resource",
        "lat": 47.28677161100595,
        "lon": -113.12848459605007,
        "alt_km": 760.0049038707157,
        "timestamp": "2025-12-12T11:38:31.072939+00:00",
        "meta_object_name": "WORLDVIEW-2 (WV-2)",
        "meta_object_id": "2009-055A",
        "meta_epoch": "2025-12-12T04:20:59.086752",
        "meta_mean_motion": 14.37723723,
        "meta_eccentricity": 0.0005144,
        "meta_inclination": 98.479,
        "meta_ra_of_asc_node": 57.2731,
        "meta_arg_of_pericenter": 72.3584,
        "meta_mean_anomaly": 287.8164,
        "meta_ephemeris_type": 0,
        "meta_classification_type": "U",
        "meta_norad_cat_id": 35946,
        "meta_element_set_no": 999,
        "meta_rev_at_epoch": 84877,
        "meta_bstar": 0.00010511,
        "meta_mean_motion_dot": 2.73e-06,
        "meta_mean_motion_ddot": 0,
        "tle_line1": "1 35946U 09055A   25346.18123943  .00000273  00000+0  10511-3 0  9999",
        "tle_line2": "2 35946  98.4790  57.2731 0005144  72.3584 287.8164 14.37723723848773"
      },
      "geometry": {
        "type": "Point",
        "coordinates": [
          -113.12848459605007,
          47.28677161100595
        ]
      }
    }
  ]
}